EUTELSAT QUANTUM        
1 49056U 21069B   25243.17814458  .00000130  00000+0  00000+0 0  9998
2 49056   0.0534 290.7808 0001946 251.8421 268.8069  1.00271708 15017
EUTELSAT KONNECT VHTS   
1 53765U 22110A   25243.24054484  .00000021  00000+0  00000+0 0  9990
2 53765   0.0554 103.9074 0002884  37.4061 287.6575  1.00269654  3915
EUTELSAT HOTBIRD 13F    
1 54048U 22134A   25243.17121122  .00000091  00000+0  00000+0 0  9994
2 54048   0.0554 292.8380 0001937  74.4224  46.9805  1.00272832 10460
EUTELSAT HOTBIRD 13G    
1 54225U 22146A   25242.95163922  .00000091  00000+0  00000+0 0  9993
2 54225   0.0502 232.1794 0002191 301.4565 161.3336  1.00272538  4557
EUTELSAT 10B            
1 54259U 22157A   25243.24201818  .00000072  00000+0  00000+0 0  9991
2 54259   0.0553 102.0936 0001636 358.9504 335.7631  1.00270709 10107
EUTELSAT 36D            
1 59346U 24059A   25243.24713154  .00000159  00000+0  00000+0 0  9993
2 59346   0.0161 143.5327 0000364 340.7633 340.2016  1.00271706  5242
